NORAD_CAT_ID,OBJECT_NAME,OBJECT_TYPE,EPOCH,MEAN_MOTION,ECCENTRICITY,INCLINATION,RA_OF_ASC_NODE,ARG_OF_PERICENTER,MEAN_ANOMALY,BSTAR,MEAN_MOTION_DOT,MEAN_MOTION_DDOT,TLE_LINE0,TLE_LINE1,TLE_LINE2,SEMIMAJOR_AXIS,PERIOD,APOGEE,PERIGEE,DECAYED
51810.0,STARLINK-3613,PAYLOAD,2022-05-26 14:00:01,15.43740088,0.0001225,53.2173,60.8859,83.037,71.932,-0.01689,-0.00717121,0.0,0 STARLINK-3613,1 51810U 22017AU  22146.58334491 -.00717121  00000-0 -16890-1 0  9995,2 51810  53.2173  60.8859 0001225  83.0370  71.9320 15.43740088  1301,6813.22,93.28,435.919,434.25,0.0
51810.0,STARLINK-3613,PAYLOAD,2022-05-26 21:06:33,15.44664436,0.0002102,53.2162,59.4793,132.6944,227.4242,-0.0043317,-0.00200335,0.0,0 STARLINK-3613,1 51810U 22017AU  22146.87955353 -.00200335  00000-0 -43317-2 0  9992,2 51810  53.2162  59.4793 0002102 132.6944 227.4242 15.44664436 15289,6810.501,93.224,433.798,430.935,0.0
51810.0,STARLINK-3613,PAYLOAD,2022-05-27 01:46:30,15.44215907,0.0001571,53.2166,58.5605,62.5843,297.5324,-0.004647,-0.0021132,0.0,0 STARLINK-3613,1 51810U 22017AU  22147.07396617 -.00211320  00000-0 -46470-2 0  9996,2 51810  53.2166  58.5605 0001571  62.5843 297.5324 15.44215907 15434,6811.82,93.251,434.755,432.615,0.0
51810.0,STARLINK-3613,PAYLOAD,2022-05-27 11:06:12,15.43714198,0.0001436,53.2166,56.7231,96.8128,263.3043,-0.005135,-0.00229004,0.0,0 STARLINK-3613,1 51810U 22017AU  22147.46264936 -.00229004  00000-0 -51350-2 0  9998,2 51810  53.2166  56.7231 0001436  96.8128 263.3043 15.43714198 15495,6813.295999999999,93.282,436.139,434.182,0.0
51810.0,STARLINK-3613,PAYLOAD,2022-05-27 14:00:01,15.42209354,0.0001152,53.2175,56.1572,89.6725,223.1194,-0.017753,-0.00715781,0.0,0 STARLINK-3613,1 51810U 22017AU  22147.58334491 -.00715781  00000-0 -17753-1 0  9995,2 51810  53.2175  56.1572 0001152  89.6725 223.1194 15.42209354  1303,6817.727,93.373,440.378,438.807,0.0
51810.0,STARLINK-3613,PAYLOAD,2022-05-27 20:00:01,15.4182945,0.0001273,53.2177,54.9772,80.0485,181.3359,-0.018081,-0.0071947,0.0,0 STARLINK-3613,1 51810U 22017AU  22147.83334491 -.00719470  00000-0 -18081-1 0  9997,2 51810  53.2177  54.9772 0001273  80.0485 181.3359 15.41829450 15559,6818.847,93.396,441.58,439.844,0.0
51810.0,STARLINK-3613,PAYLOAD,2022-05-27 21:59:25,15.42996428,6.51e-05,53.2176,54.5806,95.193,264.9151,-0.0039037,-0.00171275,0.0,0 STARLINK-3613,1 51810U 22017AU  22147.91626364 -.00171275  00000-0 -39037-2 0  9999,2 51810  53.2176  54.5806 0000651  95.1930 264.9151 15.42996428 15440,6815.409000000002,93.325,437.717,436.83,0.0
51810.0,STARLINK-3613,PAYLOAD,2022-05-28 02:39:38,15.42645422,0.0001141,53.2168,53.6641,88.3453,271.7684,-0.0047808,-0.00206281,0.0,0 STARLINK-3613,1 51810U 22017AU  22148.11085786 -.00206281  00000-0 -47808-2 0  9990,2 51810  53.2168  53.6641 0001141  88.3453 271.7684 15.42645422 15595,6816.441999999999,93.346,439.085,437.53,0.0
51810.0,STARLINK-3613,PAYLOAD,2022-05-28 12:00:00,15.40808937,0.0001089,53.2175,51.8325,90.5967,272.0202,-0.018705,-0.00719286,0.0,0 STARLINK-3613,1 51810U 22017AU  22148.50001157 -.00719286  00000-0 -18705-1 0  9990,2 51810  53.2175  51.8325 0001089  90.5967 272.0202 15.40808937 15655,6821.858,93.457,444.465,442.98,0.0
51810.0,STARLINK-3613,PAYLOAD,2022-05-28 14:00:01,15.40680641,0.000114,53.2173,51.4396,82.5988,22.5002,-0.018746,-0.00717903,0.0,0 STARLINK-3613,1 51810U 22017AU  22148.58334491 -.00717903  00000-0 -18746-1 0  9997,2 51810  53.2173  51.4396 0001140  82.5988  22.5002 15.40680641  1302,6822.236,93.465,444.879,443.324,0.0
51810.0,STARLINK-3613,PAYLOAD,2022-05-28 21:20:32,15.41453541,0.0001648,53.2158,49.9938,125.2175,234.8986,-0.0050582,-0.00209615,0.0,0 STARLINK-3613,1 51810U 22017AU  22148.88926295 -.00209615  00000-0 -50582-2 0  9990,2 51810  53.2158  49.9938 0001648 125.2175 234.8986 15.41453541 15598,6819.956,93.418,442.945,440.697,0.0
51810.0,STARLINK-3613,PAYLOAD,2022-05-29 02:00:55,15.41127368,0.0001272,53.2159,49.0794,72.749,287.3655,-0.0051408,-0.00210692,0.0,0 STARLINK-3613,1 51810U 22017AU  22149.08397687 -.00210692  00000-0 -51408-2 0  9995,2 51810  53.2159  49.0794 0001272  72.7490 287.3655 15.41127368 15747,6820.918000000002,93.438,443.65,441.915,0.0
51810.0,STARLINK-3613,PAYLOAD,2022-05-29 12:00:00,15.39277617,0.0001245,53.2174,47.1249,83.9732,65.896,-0.01959,-0.0071625,0.0,0 STARLINK-3613,1 51810U 22017AU  22149.50001157 -.00716250  00000-0 -19590-1 0  9992,2 51810  53.2174  47.1249 0001245  83.9732  65.8960 15.39277617 15806,6826.380999999999,93.55,449.096,447.396,0.0
51810.0,STARLINK-3613,PAYLOAD,2022-05-29 14:00:01,15.39150296,0.0001283,53.2173,46.7326,92.1837,159.7078,-0.019686,-0.0071671,0.0,0 STARLINK-3613,1 51810U 22017AU  22149.58334491 -.00716710  00000-0 -19686-1 0  9997,2 51810  53.2173  46.7326 0001283  92.1837 159.7078 15.39150296  1302,6826.7580000000025,93.558,449.499,447.747,0.0
51810.0,STARLINK-3613,PAYLOAD,2022-05-29 22:16:22,15.3989535,0.0002643,53.2164,45.1093,149.3297,210.7864,-0.0053991,-0.00212402,0.0,0 STARLINK-3613,1 51810U 22017AU  22149.92804166 -.00212402  00000-0 -53991-2 0  9993,2 51810  53.2164  45.1093 0002643 149.3297 210.7864 15.39895350 15754,6824.555,93.513,448.224,444.617,0.0
51810.0,STARLINK-3613,PAYLOAD,2022-05-30 04:30:31,15.3954639,0.0002356,53.2164,43.8869,138.5663,221.5522,-0.0054183999999999,-0.00210759,0.0,0 STARLINK-3613,1 51810U 22017AU  22150.18786968 -.00210759  00000-0 -54184-2 0  9990,2 51810  53.2164  43.8869 0002356 138.5663 221.5522 15.39546390 15914,6825.587,93.534,449.06,445.844,0.0
51810.0,STARLINK-3613,PAYLOAD,2022-05-30 12:00:00,15.37747716,0.0001218,53.2175,42.428,96.9984,194.6078,-0.0206,-0.00716252,0.0,0 STARLINK-3613,1 51810U 22017AU  22150.50001157 -.00716252  00000-0 -20600-1 0  9990,2 51810  53.2175  42.4280 0001218  96.9984 194.6078 15.37747716 15961,6830.908,93.643,453.605,451.941,0.0
51810.0,STARLINK-3613,PAYLOAD,2022-05-30 14:00:01,15.37619602,0.0001087,53.2173,42.0368,93.4635,299.7057,-0.020672,-0.00715773,0.0,0 STARLINK-3613,1 51810U 22017AU  22150.58334491 -.00715773  00000-0 -20672-1 0  9994,2 51810  53.2173  42.0368 0001087  93.4635 299.7057 15.37619602  1300,6831.288000000001,93.651,453.895,452.41,0.0
51810.0,STARLINK-3613,PAYLOAD,2022-05-30 22:00:00,15.37112003,0.0001215,53.2173,40.4756,72.1574,6.8766,-0.021132,-0.00719413,0.0,0 STARLINK-3613,1 51810U 22017AU  22150.91667824 -.00719413  00000-0 -21132-1 0  9997,2 51810  53.2173  40.4756 0001215  72.1574   6.8766 15.37112003  1309,6832.791,93.682,455.487,453.826,0.0
51810.0,STARLINK-3613,PAYLOAD,2022-05-31 06:00:02,15.36601273,0.00012,53.2172,38.9139,93.5866,30.7656,-0.021425,-0.00717532,0.0,0 STARLINK-3613,1 51810U 22017AU  22151.25002315 -.00717532  00000-0 -21425-1 0  9998,2 51810  53.2172  38.9139 0001200  93.5866  30.7656 15.36601273  1305,6834.305,93.713,456.991,455.35,0.0
51810.0,STARLINK-3613,PAYLOAD,2022-05-31 10:09:12,15.37805953,0.0002059,53.2164,38.0975,88.6329,271.4912,-0.0057695,-0.00211929,0.0,0 STARLINK-3613,1 51810U 22017AU  22151.42306456 -.00211929  00000-0 -57695-2 0  9998,2 51810  53.2164  38.0975 0002059  88.6329 271.4912 15.37805953 16102,6830.736,93.64,454.007,451.194,0.0
51810.0,STARLINK-3613,PAYLOAD,2022-05-31 20:00:01,15.35709435,0.0001249,53.2174,36.1834,75.0402,36.9684,-0.022104,-0.00719101,0.0,0 STARLINK-3613,1 51810U 22017AU  22151.83334491 -.00719101  00000-0 -22104-1 0  9994,2 51810  53.2174  36.1834 0001249  75.0402  36.9684 15.35709435 16160,6836.951,93.768,459.67,457.962,0.0
51810.0,STARLINK-3613,PAYLOAD,2022-05-31 22:00:00,15.35579688,0.0001373,53.2173,35.7942,78.5554,134.4034,-0.022079,-0.00715591,0.0,0 STARLINK-3613,1 51810U 22017AU  22151.91667824 -.00715591  00000-0 -22079-1 0  9992,2 51810  53.2173  35.7942 0001373  78.5554 134.4034 15.35579688  1306,6837.3359999999975,93.776,460.14,458.262,0.0
51810.0,STARLINK-3613,PAYLOAD,2022-06-01 03:20:12,15.3653717,9.83e-05,53.2161,34.7507,44.4805,315.6278,-0.0062362,-0.00219573,0.0,0 STARLINK-3613,1 51810U 22017AU  22152.13903060 -.00219573  00000-0 -62362-2 0  9991,2 51810  53.2161  34.7507 0000983  44.4805 315.6278 15.36537170 16216,6834.495,93.717,457.032,455.689,0.0
51810.0,STARLINK-3613,PAYLOAD,2022-06-01 12:00:00,15.34687569,0.0001289,53.2173,33.067,85.9481,112.5864,-0.02271,-0.00715256,0.0,0 STARLINK-3613,1 51810U 22017AU  22152.50001157 -.00715256  00000-0 -22710-1 0  9999,2 51810  53.2173  33.0670 0001289  85.9481 112.5864 15.34687569 16268,6839.986,93.83,462.732,460.969,0.0
51810.0,STARLINK-3613,PAYLOAD,2022-06-01 20:00:01,15.34177787,0.0001372,53.2175,31.5122,75.1394,165.7378,-0.0231,-0.00715744,0.0,0 STARLINK-3613,1 51810U 22017AU  22152.83334491 -.00715744  00000-0 -23100-1 0  9991,2 51810  53.2175  31.5122 0001372  75.1394 165.7378 15.34177787  1307,6841.501,93.861,464.304,462.427,0.0
51810.0,STARLINK-3613,PAYLOAD,2022-06-03 02:15:20,15.33403319,9.18e-05,53.2152,25.6355,42.8978,317.2096,-0.0060714,-0.00194073,0.0,0 STARLINK-3613,1 51810U 22017AU  22154.09399002 -.00194073  00000-0 -60714-2 0  9999,2 51810  53.2152  25.6355 0000918  42.8978 317.2096 15.33403319 16510,6843.804,93.909,466.297,465.041,0.0
51810.0,STARLINK-3613,PAYLOAD,2022-06-03 08:30:59,15.33202397,0.0001135,53.2166,24.4204,87.2811,272.8322,-0.0066039,-0.0020931,0.0,0 STARLINK-3613,1 51810U 22017AU  22154.35485539 -.00209310  00000-0 -66039-2 0  9996,2 51810  53.2166  24.4204 0001135  87.2811 272.8322 15.33202397 16551,6844.401999999999,93.921,467.044,465.49,0.0
51810.0,STARLINK-3613,PAYLOAD,2022-06-03 17:54:41,15.32703875,0.0001024,53.2165,22.5977,142.7417,217.3657,-0.0064729,-0.00202156,0.0,0 STARLINK-3613,1 51810U 22017AU  22154.74631650 -.00202156  00000-0 -64729-2 0  9991,2 51810  53.2165  22.5977 0001024 142.7417 217.3657 15.32703875 16610,6845.886,93.952,468.452,467.05,0.0
51810.0,STARLINK-3613,PAYLOAD,2022-06-04 01:44:57,15.31917822,5.06e-05,53.2174,21.0854,69.5222,290.5834,-0.0065048999999999,-0.00198296,0.0,0 STARLINK-3613,1 51810U 22017AU  22155.07288491 -.00198296  00000-0 -65049-2 0  9994,2 51810  53.2174  21.0854 0000506  69.5222 290.5834 15.31917822 16665,6848.228,94.0,470.439,469.746,0.0
